NORAD_CAT_ID,OBJECT_NAME,OBJECT_TYPE,EPOCH,MEAN_MOTION,ECCENTRICITY,INCLINATION,RA_OF_ASC_NODE,ARG_OF_PERICENTER,MEAN_ANOMALY,BSTAR,MEAN_MOTION_DOT,MEAN_MOTION_DDOT,TLE_LINE0,TLE_LINE1,TLE_LINE2,SEMIMAJOR_AXIS,PERIOD,APOGEE,PERIGEE,DECAYED
51741.0,STARLINK-3520,PAYLOAD,2024-06-16 13:44:56,15.08842532,9.08e-05,53.2176,272.3265,81.4931,278.6164,9.5666e-05,1.235e-05,0.0,0 STARLINK-3520,1 51741U 22016AD  24168.57287696  .00001235  00000-0  95666-4 0  9997,2 51741  53.2176 272.3265 0000908  81.4931 278.6164 15.08842532128287,6917.873,95.437,540.366,539.11,0.0
51741.0,STARLINK-3520,PAYLOAD,2024-06-16 16:55:42,15.08845631,8.83e-05,53.2174,271.73,78.4826,281.6266,6.1975e-05,6.99e-06,0.0,0 STARLINK-3520,1 51741U 22016AD  24168.70535521  .00000699  00000-0  61975-4 0  9994,2 51741  53.2174 271.7300 0000883  78.4826 281.6266 15.08845631128302,6917.863,95.437,540.339,539.117,0.0
51741.0,STARLINK-3520,PAYLOAD,2024-06-17 13:35:44,15.08836764,8.8e-05,53.2175,267.8664,78.1754,281.9337,2.3981e-05,9.4e-07,0.0,0 STARLINK-3520,1 51741U 22016AD  24169.56648396  .00000094  00000-0  23981-4 0  9998,2 51741  53.2175 267.8664 0000880  78.1754 281.9337 15.08836764128439,6917.89,95.438,540.364,539.147,0.0
51741.0,STARLINK-3520,PAYLOAD,2024-06-18 13:26:31,15.08840745,0.0001084,53.2182,263.4103,99.9998,260.1117,1.958e-05,2.4e-07,0.0,0 STARLINK-3520,1 51741U 22016AD  24170.56008409  .00000024  00000-0  19580-4 0  9998,2 51741  53.2182 263.4103 0001084  99.9998 260.1117 15.08840745128580,6917.878,95.438,540.493,538.993,0.0
51741.0,STARLINK-3520,PAYLOAD,2024-06-19 13:17:19,15.08830924,0.0001058,53.2178,258.9495,96.4493,263.662,2.6378e-05,1.32e-06,0.0,0 STARLINK-3520,1 51741U 22016AD  24171.55369641  .00000132  00000-0  26378-4 0  9999,2 51741  53.2178 258.9495 0001058  96.4493 263.6620 15.08830924129846,6917.908,95.438,540.505,539.041,0.0
51741.0,STARLINK-3520,PAYLOAD,2024-06-19 14:52:42,15.08832662,9.7e-05,53.2167,258.6496,72.0324,288.0773,4.7963e-05,4.76e-06,0.0,0 STARLINK-3520,1 51741U 22016AD  24171.61993538  .00000476  00000-0  47963-4 0  9998,2 51741  53.2167 258.6496 0000970  72.0324 288.0773 15.08832662128746,6917.903,95.438,540.439,539.097,0.0
51741.0,STARLINK-3520,PAYLOAD,2024-06-20 13:08:05,15.088472,0.0001053,53.2169,254.4862,71.5736,288.5371,0.00011241,1.502e-05,0.0,0 STARLINK-3520,1 51741U 22016AD  24172.54728682  .00001502  00000-0  11241-3 0  9997,2 51741  53.2169 254.4862 0001053  71.5736 288.5371 15.08847200128881,6917.858,95.437,540.452,538.995,0.0
51741.0,STARLINK-3520,PAYLOAD,2024-06-20 14:43:28,15.08847875,0.0001053,53.2171,254.1893,80.6262,279.4849,0.00012277,1.667e-05,0.0,0 STARLINK-3520,1 51741U 22016AD  24172.61352615  .00001667  00000-0  12277-3 0  9996,2 51741  53.2171 254.1893 0001053  80.6262 279.4849 15.08847875130004,6917.856,95.437,540.45,538.993,0.0
51741.0,STARLINK-3520,PAYLOAD,2024-06-21 05:01:57,15.08843671,0.0001004,53.2163,251.5139,85.4009,274.7098,0.00011074,1.475e-05,0.0,0 STARLINK-3520,1 51741U 22016AD  24173.20968934  .00001475  00000-0  11074-3 0  9990,2 51741  53.2163 251.5139 0001004  85.4009 274.7098 15.08843671130090,6917.869,95.437,540.429,539.04,0.0
51741.0,STARLINK-3520,PAYLOAD,2024-06-21 11:23:29,15.08841979,0.000105,53.2166,250.3232,86.5025,273.6088,8.9416e-05,1.136e-05,0.0,0 STARLINK-3520,1 51741U 22016AD  24173.47465040  .00001136  00000-0  89416-4 0  9999,2 51741  53.2166 250.3232 0001050  86.5025 273.6088 15.08841979129022,6917.874,95.437,540.466,539.013,0.0
51741.0,STARLINK-3520,PAYLOAD,2024-06-22 11:14:16,15.08844694,0.0001111,53.2164,245.8627,82.6704,277.4414,-1.2815e-05,-4.92e-06,0.0,0 STARLINK-3520,1 51741U 22016AD  24174.46825015 -.00000492  00000-0 -12815-4 0  9996,2 51741  53.2164 245.8627 0001111  82.6704 277.4414 15.08844694130288,6917.866,95.437,540.5,538.962,0.0
51741.0,STARLINK-3520,PAYLOAD,2024-06-23 14:15:49,15.08844971,0.0001187,53.2167,240.8069,95.5537,264.5591,6.0523e-05,6.76e-06,0.0,0 STARLINK-3520,1 51741U 22016AD  24175.59432471  .00000676  00000-0  60523-4 0  9992,2 51741  53.2167 240.8069 0001187  95.5537 264.5591 15.08844971129342,6917.865,95.437,540.551,538.909,0.0
51741.0,STARLINK-3520,PAYLOAD,2024-06-24 04:34:18,15.08840749,0.0001274,53.2172,238.1285,95.4302,264.6835,3.3629e-05,2.47e-06,0.0,0 STARLINK-3520,1 51741U 22016AD  24176.19048793  .00000247  00000-0  33629-4 0  9990,2 51741  53.2172 238.1285 0001274  95.4302 264.6835 15.08840749130549,6917.878,95.438,540.624,538.862,0.0
51741.0,STARLINK-3520,PAYLOAD,2024-06-24 12:31:13,15.08840265,0.0001263,53.2172,236.6413,98.512,261.6016,2.1352e-05,5.2e-07,0.0,0 STARLINK-3520,1 51741U 22016AD  24176.52168815  .00000052  00000-0  21352-4 0  9999,2 51741  53.2172 236.6413 0001263  98.5120 261.6016 15.08840265129487,6917.88,95.438,540.618,538.871,0.0
51741.0,STARLINK-3520,PAYLOAD,2024-06-25 10:46:38,15.08836548,0.0001297,53.2172,232.4777,94.7593,265.3547,6.5955e-06,-1.83e-06,0.0,0 STARLINK-3520,1 51741U 22016AD  24177.44905236 -.00000183  00000-0  65955-5 0  9991,2 51741  53.2172 232.4777 0001297  94.7593 265.3547 15.08836548130732,6917.891,95.438,540.653,538.859,0.0
51741.0,STARLINK-3520,PAYLOAD,2024-06-25 12:22:01,15.08836917,0.0001303,53.2172,232.1803,95.6296,264.4845,9.6161e-06,-1.35e-06,0.0,0 STARLINK-3520,1 51741U 22016AD  24177.51529219 -.00000135  00000-0  96161-5 0  9992,2 51741  53.2172 232.1803 0001303  95.6296 264.4845 15.08836917129635,6917.89,95.438,540.656,538.853,0.0
51741.0,STARLINK-3520,PAYLOAD,2024-06-26 09:02:01,15.08840442,0.0001297,53.2166,228.3152,95.2784,264.8356,6.5155e-05,7.49e-06,0.0,0 STARLINK-3520,1 51741U 22016AD  24178.37640868  .00000749  00000-0  65155-4 0  9999,2 51741  53.2166 228.3152 0001297  95.2784 264.8356 15.08840442129765,6917.879,95.438,540.641,538.847,0.0
51741.0,STARLINK-3520,PAYLOAD,2024-06-27 10:28:12,15.08832282,0.0001213,53.2158,223.5572,76.8914,283.2214,-1.486e-05,-5.24e-06,0.0,0 STARLINK-3520,1 51741U 22016AD  24179.43626071 -.00000524  00000-0 -14860-4 0  9997,2 51741  53.2158 223.5572 0001213  76.8914 283.2214 15.08832282131031,6917.904,95.438,540.608,538.93,0.0
51741.0,STARLINK-3520,PAYLOAD,2024-06-28 10:18:59,15.08835203,0.0001218,53.2152,219.0984,95.5494,264.5637,0.00016525,2.343e-05,0.0,0 STARLINK-3520,1 51741U 22016AD  24180.42985518  .00002343  00000-0  16525-3 0  9990,2 51741  53.2152 219.0984 0001218  95.5494 264.5637 15.08835203131181,6917.895,95.438,540.603,538.917,0.0
51741.0,STARLINK-3520,PAYLOAD,2024-06-28 15:05:08,15.08846296,0.0001208,53.2155,218.2059,87.0971,273.0159,0.00013103,1.798e-05,0.0,0 STARLINK-3520,1 51741U 22016AD  24180.62856995  .00001798  00000-0  13103-3 0  9990,2 51741  53.2155 218.2059 0001208  87.0971 273.0159 15.08846296131215,6917.861,95.437,540.562,538.89,0.0
51741.0,STARLINK-3520,PAYLOAD,2024-06-29 08:34:23,15.08838057,0.0001146,53.215,214.9328,115.6504,244.4606,7.0946e-05,8.41e-06,0.0,0 STARLINK-3520,1 51741U 22016AD  24181.35721656  .00000841  00000-0  70946-4 0  9993,2 51741  53.2150 214.9328 0001146 115.6504 244.4606 15.08838057131320,6917.886,95.438,540.544,538.959,0.0
51741.0,STARLINK-3520,PAYLOAD,2024-06-29 19:42:05,15.08839224,0.0001177,53.2148,212.8544,87.1318,272.9809,8.1818e-05,1.015e-05,0.0,0 STARLINK-3520,1 51741U 22016AD  24181.82089807  .00001015  00000-0  81818-4 0  9994,2 51741  53.2148 212.8544 0001177  87.1318 272.9809 15.08839224130286,6917.883,95.438,540.562,538.934,0.0
51741.0,STARLINK-3520,PAYLOAD,2024-06-30 11:35:56,15.08842436,0.0001336,53.2161,209.8793,113.5629,246.5504,-1.6496e-05,-5.5e-06,0.0,0 STARLINK-3520,1 51741U 22016AD  24182.48329853 -.00000550  00000-0 -16496-4 0  9990,2 51741  53.2161 209.8793 0001336 113.5629 246.5504 15.08842436131491,6917.873,95.437,540.662,538.814,0.0
51741.0,STARLINK-3520,PAYLOAD,2024-07-01 08:15:57,15.08838084,0.0001336,53.2159,206.0142,95.6908,264.4237,3.7127e-05,3.03e-06,0.0,0 STARLINK-3520,1 51741U 22016AD  24183.34442091  .00000303  00000-0  37127-4 0  9994,2 51741  53.2159 206.0142 0001336  95.6908 264.4237 15.08838084130513,6917.886,95.438,540.675,538.827,0.0
51741.0,STARLINK-3520,PAYLOAD,2024-07-02 04:55:58,15.08839675,0.0001286,53.2155,202.1482,93.8582,266.2557,7.1779e-05,8.55e-06,0.0,0 STARLINK-3520,1 51741U 22016AD  24184.20553916  .00000855  00000-0  71779-4 0  9992,2 51741  53.2155 202.1482 0001286  93.8582 266.2557 15.08839675131754,6917.881,95.438,540.636,538.857,0.0
51741.0,STARLINK-3520,PAYLOAD,2024-07-02 08:06:44,15.08840435,0.0001253,53.2154,201.554,91.43,268.6835,8.0111e-05,9.87e-06,0.0,0 STARLINK-3520,1 51741U 22016AD  24184.33801858  .00000987  00000-0  80111-4 0  9993,2 51741  53.2154 201.5540 0001253  91.4300 268.6835 15.08840435130667,6917.879,95.438,540.611,538.877,0.0
51741.0,STARLINK-3520,PAYLOAD,2024-07-02 17:39:03,15.08838824,0.0001199,53.2149,199.7695,88.712,271.401,4.6388e-05,4.5e-06,0.0,0 STARLINK-3520,1 51741U 22016AD  24184.73546032  .00000450  00000-0  46388-4 0  9990,2 51741  53.2149 199.7695 0001199  88.7120 271.4010 15.08838824130721,6917.884,95.438,540.578,538.92,0.0
51741.0,STARLINK-3520,PAYLOAD,2024-07-03 04:46:46,15.08835158,0.000126,53.2156,197.6887,91.0591,269.0545,1.6534e-05,-2.5e-07,0.0,0 STARLINK-3520,1 51741U 22016AD  24185.19914452 -.00000025  00000-0  16534-4 0  9995,2 51741  53.2156 197.6887 0001260  91.0591 269.0545 15.08835158131901,6917.895,95.438,540.632,538.889,0.0
51741.0,STARLINK-3520,PAYLOAD,2024-07-03 17:29:50,15.08838673,0.0001277,53.2158,195.3102,91.2095,268.9043,2.7145e-05,1.44e-06,0.0,0 STARLINK-3520,1 51741U 22016AD  24185.72906229  .00000144  00000-0  27145-4 0  9998,2 51741  53.2158 195.3102 0001277  91.2095 268.9043 15.08838673130878,6917.884,95.438,540.633,538.866,0.0
51741.0,STARLINK-3520,PAYLOAD,2024-07-04 09:23:42,15.08839823,0.000129,53.2159,192.3366,91.305,268.809,2.0665e-05,4.1e-07,0.0,0 STARLINK-3520,1 51741U 22016AD  24186.39146205  .00000041  00000-0  20665-4 0  9998,2 51741  53.2159 192.3366 0001290  91.3050 268.8090 15.08839823132089,6917.881,95.438,540.638,538.854,0.0
